GLOBALSTAR M067         
1 32263U 07048A   24161.95637588 -.00000040  00000+0  42357-3 0  9998
2 32263  51.9748  45.0877 0000358 333.2066  39.3997 12.40647330763288
GLOBALSTAR M070         
1 32264U 07048B   24161.76960425 -.00000096  00000+0  46085-4 0  9991
2 32264  51.9723 183.0163 0000243  10.8687 162.6221 12.62294203766636
GLOBALSTAR M066         
1 32265U 07048C   24161.93313292 -.00000093  00000+0  60158-4 0  9999
2 32265  51.9695  44.4886 0000825  73.3123 299.9390 12.62263121768922
GLOBALSTAR M068         
1 32266U 07048D   24161.81895841 -.00000076  00000+0  15425-3 0  9999
2 32266  51.9904 357.3288 0001617  64.6418 308.8499 12.62791361770518
GLOBALSTAR M079         
1 37188U 10054A   24161.79869656 -.00000096  00000+0  45081-4 0  9994
2 37188  52.0015 193.3965 0000359 186.9709 344.3305 12.62270971629427
GLOBALSTAR M074         
1 37189U 10054B   24161.82528958 -.00000093  00000+0  61567-4 0  9990
2 37189  51.9992 192.6969 0000102 143.4514  27.8993 12.62269734630034
GLOBALSTAR M076         
1 37190U 10054C   24161.85130166 -.00000088  00000+0  90017-4 0  9991
2 37190  52.0005 192.7528 0000411 243.3820 287.6862 12.62262333629754
GLOBALSTAR M077         
1 37191U 10054D   24161.96755885 -.00000119  00000+0 -85211-4 0  9991
2 37191  52.0045 149.1474 0000250   4.7308  34.0611 12.62273825630145
